CALSPHERE 1             
1 00900U 64063C   07359.84440161  .00000293  00000-0  32049-3 0  3764
2 00900  90.1811 317.4071 0029169  47.1299 313.2328 13.70259201145601
CALSPHERE 2             
1 00902U 64063E   07359.89267593  .00000075  00000-0  10000-3 0  6402
2 00902  90.1801 320.6904 0019209  18.2981 341.8850 13.52448424944470
LCS 1                   
1 01361U 65034C   07359.39567352  .00000009  00000-0  10000-3 0  9985
2 01361  32.1471   0.5917 0010777 146.3359 213.7825  9.89273498541902
TEMPSAT 1               
1 01512U 65065E   07359.85988966  .00000060  00000-0  10000-3 0  7307
2 01512  89.8323 309.8354 0071559 113.1627 247.7064 13.33244271 60763
CALSPHERE 4(A)          
1 01520U 65065H   07359.76848428  .00000060  00000-0  10000-3 0  8642
2 01520  90.1917  73.2614 0071271  47.9564 312.7610 13.35276173 62267
OPS 5712 (P/L 160)      
1 02826U 67053A   07359.97694347  .00000405  00000-0  15410-3 0  3203
2 02826  69.9345 327.3821 0008700 209.3594 150.7035 14.37799614 89772
OPS 5712 (P/L 153)      
1 02874U 67053H   07359.85541881 -.00000011  00000-0  30772-4 0  6809
2 02874  69.9706 166.2065 0009143 297.8505  62.1661 13.95896480 65274
SURCAL 150B             
1 02909U 67053J   07359.86087969  .00000625  00000-0  19258-3 0  4804
2 02909  69.9538 157.5204 0004717 317.2234  42.8512 14.45928411 94999
RIGIDSPHERE 2 (LCS 4)   
1 05398U 71067E   07359.82026553  .00000073  00000-0  20172-4 0  1472
2 05398  87.6217  37.4680 0067076 143.6081 216.9708 14.31018591907423
RADCAT                  
1 06212U 72076A   07359.87763111  .00001993  00000-0  79614-4 0  3594
2 06212  98.5516 276.6066 0004429  56.3603 303.8060 15.26625862 40537
